SKYKRAFT-1A             
1 55054U 23001AX  26068.71064616  .00008177  00000+0  30069-3 0  9991
2 55054  97.3349 127.6290 0011277 121.5092 238.7251 15.28083228176529
STARLINK-35825          
1 66567U 25268L   26068.10473069  .00031086  00000+0  11338-2 0  9990
2 66567  43.0016 350.0796 0001091 266.9898  93.0829 15.27596711 17873
